{
  "type": "FeatureCollection",
  "features": [
    {
      "type": "Feature",
      "properties": {
        "norad_id": 35789,
        "name": "COSMOS 2251 DEB",
        "group": "cosmos-2251-debris",
        "lat": -60.19376128998203,
        "lon": -98.54793038978258,
        "alt_km": 782.1987600758139,
        "timestamp": "2025-12-08T21:31:05.063157+00:00",
        "meta_object_name": "COSMOS 2251 DEB",
        "meta_object_id": "1993-036ASK",
        "meta_epoch": "2025-12-07T20:44:12.221376",
        "meta_mean_motion": 14.35979248,
        "meta_eccentricity": 0.00472292,
        "meta_inclination": 74.0391,
        "meta_ra_of_asc_node": 293.3196,
        "meta_arg_of_pericenter": 34.0926,
        "meta_mean_anomaly": 326.3244,
        "meta_ephemeris_type": 0,
        "meta_classification_type": "U",
        "meta_norad_cat_id": 35789,
        "meta_element_set_no": 999,
        "meta_rev_at_epoch": 61157,
        "meta_bstar": 0.00024477,
        "meta_mean_motion_dot": 6.94e-06,
        "meta_mean_motion_ddot": 0,
        "tle_line1": "1 35789U 93036ASK 25341.86403034  .00000694  00000+0  24477-3 0  9991",
        "tle_line2": "2 35789  74.0391 293.3196 0047229  34.0926 326.3244 14.35979248611575"
      },
      "geometry": {
        "type": "Point",
        "coordinates": [
          -98.54793038978258,
          -60.19376128998203
        ]
      }
    },
    {
      "type": "Feature",
      "properties": {
        "norad_id": 35793,
        "name": "COSMOS 2251 DEB",
        "group": "cosmos-2251-debris",
        "lat": 56.6532932477739,
        "lon": -138.04142556954815,
        "alt_km": 626.2616215896014,
        "timestamp": "2025-12-08T21:31:05.063167+00:00",
        "meta_object_name": "COSMOS 2251 DEB",
        "meta_object_id": "1993-036ASP",
        "meta_epoch": "2025-12-07T22:47:04.053408",
        "meta_mean_motion": 14.78488646,
        "meta_eccentricity": 0.00029281,
        "meta_inclination": 74.0407,
        "meta_ra_of_asc_node": 69.5961,
        "meta_arg_of_pericenter": 139.1114,
        "meta_mean_anomaly": 340.8609,
        "meta_ephemeris_type": 0,
        "meta_classification_type": "U",
        "meta_norad_cat_id": 35793,
        "meta_element_set_no": 999,
        "meta_rev_at_epoch": 65726,
        "meta_bstar": 0.0023244582,
        "meta_mean_motion_dot": 0.0001698,
        "meta_mean_motion_ddot": 0,
        "tle_line1": "1 35793U 93036ASP 25341.94935247  .00016980  00000+0  23245-2 0  9997",
        "tle_line2": "2 35793  74.0407  69.5961 0002928 139.1114 340.8609 14.78488646657260"
      },
      "geometry": {
        "type": "Point",
        "coordinates": [
          -138.04142556954815,
          56.6532932477739
        ]
      }
    },
    {
      "type": "Feature",
      "properties": {
        "norad_id": 35824,
        "name": "COSMOS 2251 DEB",
        "group": "cosmos-2251-debris",
        "lat": -49.976149747161216,
        "lon": 35.207122257018526,
        "alt_km": 1116.6413903894763,
        "timestamp": "2025-12-08T21:31:05.063177+00:00",
        "meta_object_name": "COSMOS 2251 DEB",
        "meta_object_id": "1993-036ASW",
        "meta_epoch": "2025-12-08T11:24:31.157568",
        "meta_mean_motion": 13.883958,
        "meta_eccentricity": 0.02494458,
        "meta_inclination": 73.8458,
        "meta_ra_of_asc_node": 56.1203,
        "meta_arg_of_pericenter": 143.0234,
        "meta_mean_anomaly": 218.8382,
        "meta_ephemeris_type": 0,
        "meta_classification_type": "U",
        "meta_norad_cat_id": 35824,
        "meta_element_set_no": 999,
        "meta_rev_at_epoch": 84168,
        "meta_bstar": 0.0020429183,
        "meta_mean_motion_dot": 3.116e-05,
        "meta_mean_motion_ddot": 0,
        "tle_line1": "1 35824U 93036ASW 25342.47536062  .00003116  00000+0  20429-2 0  9991",
        "tle_line2": "2 35824  73.8458  56.1203 0249445 143.0234 218.8382 13.88395800841685"
      },
      "geometry": {
        "type": "Point",
        "coordinates": [
          35.207122257018526,
          -49.976149747161216
        ]
      }
    },
    {
      "type": "Feature",
      "properties": {
        "norad_id": 35825,
        "name": "COSMOS 2251 DEB",
        "group": "cosmos-2251-debris",
        "lat": -19.221213600815496,
        "lon": -25.3453155678208,
        "alt_km": 814.5287141902891,
        "timestamp": "2025-12-08T21:31:05.063187+00:00",
        "meta_object_name": "COSMOS 2251 DEB",
        "meta_object_id": "1993-036ASX",
        "meta_epoch": "2025-12-06T17:43:31.257408",
        "meta_mean_motion": 13.70908059,
        "meta_eccentricity": 0.03529553,
        "meta_inclination": 74.1125,
        "meta_ra_of_asc_node": 152.5025,
        "meta_arg_of_pericenter": 249.6557,
        "meta_mean_anomaly": 106.6316,
        "meta_ephemeris_type": 0,
        "meta_classification_type": "U",
        "meta_norad_cat_id": 35825,
        "meta_element_set_no": 999,
        "meta_rev_at_epoch": 82426,
        "meta_bstar": 0.0026115912,
        "meta_mean_motion_dot": 3.599e-05,
        "meta_mean_motion_ddot": 0,
        "tle_line1": "1 35825U 93036ASX 25340.73855622  .00003599  00000+0  26116-2 0  9999",
        "tle_line2": "2 35825  74.1125 152.5025 0352955 249.6557 106.6316 13.70908059824269"
      },
      "geometry": {
        "type": "Point",
        "coordinates": [
          -25.3453155678208,
          -19.221213600815496
        ]
      }
    },
    {
      "type": "Feature",
      "properties": {
        "norad_id": 35829,
        "name": "COSMOS 2251 DEB",
        "group": "cosmos-2251-debris",
        "lat": 65.46000000332103,
        "lon": 145.1984859998271,
        "alt_km": 635.8382868404587,
        "timestamp": "2025-12-08T21:31:05.063197+00:00",
        "meta_object_name": "COSMOS 2251 DEB",
        "meta_object_id": "1993-036ATB",
        "meta_epoch": "2025-12-08T14:41:25.732032",
        "meta_mean_motion": 14.76103447,
        "meta_eccentricity": 0.00062829,
        "meta_inclination": 74.0249,
        "meta_ra_of_asc_node": 106.8945,
        "meta_arg_of_pericenter": 174.4564,
        "meta_mean_anomaly": 185.6681,
        "meta_ephemeris_type": 0,
        "meta_classification_type": "U",
        "meta_norad_cat_id": 35829,
        "meta_element_set_no": 999,
        "meta_rev_at_epoch": 87714,
        "meta_bstar": 0.0032693996,
        "meta_mean_motion_dot": 0.0002262,
        "meta_mean_motion_ddot": 0,
        "tle_line1": "1 35829U 93036ATB 25342.61210338  .00022620  00000+0  32694-2 0  9995",
        "tle_line2": "2 35829  74.0249 106.8945 0006282 174.4564 185.6681 14.76103447877146"
      },
      "geometry": {
        "type": "Point",
        "coordinates": [
          145.1984859998271,
          65.46000000332103
        ]
      }
    },
    {
      "type": "Feature",
      "properties": {
        "norad_id": 35830,
        "name": "COSMOS 2251 DEB",
        "group": "cosmos-2251-debris",
        "lat": 15.945829986034713,
        "lon": -81.82505264883406,
        "alt_km": 873.2545735582244,
        "timestamp": "2025-12-08T21:31:05.063207+00:00",
        "meta_object_name": "COSMOS 2251 DEB",
        "meta_object_id": "1993-036ATC",
        "meta_epoch": "2025-12-06T12:06:38.215008",
        "meta_mean_motion": 14.23927917,
        "meta_eccentricity": 0.01224789,
        "meta_inclination": 73.8624,
        "meta_ra_of_asc_node": 277.7805,
        "meta_arg_of_pericenter": 247.2482,
        "meta_mean_anomaly": 111.5683,
        "meta_ephemeris_type": 0,
        "meta_classification_type": "U",
        "meta_norad_cat_id": 35830,
        "meta_element_set_no": 999,
        "meta_rev_at_epoch": 61175,
        "meta_bstar": 0.0019622096,
        "meta_mean_motion_dot": 4.837e-05,
        "meta_mean_motion_ddot": 0,
        "tle_line1": "1 35830U 93036ATC 25340.50460897  .00004837  00000+0  19622-2 0  9996",
        "tle_line2": "2 35830  73.8624 277.7805 0122478 247.2482 111.5683 14.23927917611750"
      },
      "geometry": {
        "type": "Point",
        "coordinates": [
          -81.82505264883406,
          15.945829986034713
        ]
      }
    },
    {
      "type": "Feature",
      "properties": {
        "norad_id": 35834,
        "name": "COSMOS 2251 DEB",
        "group": "cosmos-2251-debris",
        "lat": 4.675735569417052,
        "lon": -47.268990680419556,
        "alt_km": 874.1140534195056,
        "timestamp": "2025-12-08T21:31:05.063217+00:00",
        "meta_object_name": "COSMOS 2251 DEB",
        "meta_object_id": "1993-036ATG",
        "meta_epoch": "2025-12-08T08:36:23.739840",
        "meta_mean_motion": 14.12972946,
        "meta_eccentricity": 0.01091712,
        "meta_inclination": 73.9308,
        "meta_ra_of_asc_node": 312.3372,
        "meta_arg_of_pericenter": 113.5541,
        "meta_mean_anomaly": 37.1535,
        "meta_ephemeris_type": 0,
        "meta_classification_type": "U",
        "meta_norad_cat_id": 35834,
        "meta_element_set_no": 999,
        "meta_rev_at_epoch": 66201,
        "meta_bstar": 0.00037902513,
        "meta_mean_motion_dot": 7.23e-06,
        "meta_mean_motion_ddot": 0,
        "tle_line1": "1 35834U 93036ATG 25342.35860810  .00000723  00000+0  37903-3 0  9997",
        "tle_line2": "2 35834  73.9308 312.3372 0109171 113.5541  37.1535 14.12972946662019"
      },
      "geometry": {
        "type": "Point",
        "coordinates": [
          -47.268990680419556,
          4.675735569417052
        ]
      }
    }
  ]
}